E-ST@R-II               
1 41459U 16025D   22038.16569371  .00007950  00000+0  37136-3 0  9993
2 41459  98.1681 194.1405 0153815 351.1240   8.7388 15.10148393317810
AAUSAT 4                
1 41460U 16025E   22037.98524760  .00012061  00000+0  52348-3 0  9998
2 41460  98.1645 199.1373 0138125 331.3223  28.0593 15.14203462318164
BEESAT-4                
1 41619U 16040W   22037.89766559  .00009889  00000+0  36882-3 0  9994
2 41619  97.2380  92.2319 0009223 213.5527 146.5129 15.27574874300774
CANX-7                  
1 41788U 16059F   22037.93672365  .00104357  00000+0  76345-2 0  9990
2 41788  98.2311 158.8849 0018867 173.1390 326.2978 15.02951069288824
RAVAN                   
1 41849U 16067B   22038.44995441  .00003956  00000+0  32496-3 0  9990
2 41849  97.9887 171.8583 0012361  57.4998 302.7417 14.99731736286509
CELTEE 1                
1 41850U 16067C   22038.33750891  .00001351  00000+0  12018-3 0  9993
2 41850  97.9771 167.3500 0009418  53.2038 307.0046 14.97827800286276
OPTICUBE 04             
1 41851U 16067D   22038.33558048  .00000713  00000+0  66668-4 0  9996
2 41851  97.9757 166.5455 0009687  56.7775 303.4373 14.97359130286230
AEROCUBE 8D             
1 41852U 16067E   22037.91335856  .00002143  00000+0  18826-3 0  9991
2 41852  97.9765 166.0438 0011027  59.6603 300.5707 14.97648829286155
AEROCUBE 8C             
1 41853U 16067F   22037.89176467  .00002487  00000+0  21784-3 0  9998
2 41853  97.9740 165.8609 0010969  62.2986 297.9347 14.97605253286146
PROMETHEUS 2-1          
1 41854U 16067G   22037.87423946  .00003089  00000+0  26437-3 0  9993
2 41854  97.9746 166.7012 0010359  55.3642 304.8555 14.98329100286184
PROMETHEUS 2-3          
1 41855U 16067H   22038.33629342  .00002662  00000+0  22843-3 0  9997
2 41855  97.9752 167.2422 0010716  53.5784 306.6424 14.98355124286255
INS-1B                  
1 41954U 17008G   22037.74138358  .00009299  00000+0  34104-3 0  9995
2 41954  97.2775 100.5419 0007944 352.6216   7.4905 15.28158637276760
BGUSAT                  
1 41999U 17008BD  22037.73239013  .00019614  00000+0  60313-3 0  9996
2 41999  97.2985 109.2576 0005921 350.6694   9.4438 15.33701138276560
DIDO-2                  
1 42000U 17008BE  22038.39306846  .00005847  00000+0  22577-3 0  9995
2 42000  97.2768 101.0211 0008077  13.0308 347.1138 15.26615828276219
PEASSS                  
1 42015U 17008BV  22037.72850734  .00009123  00000+0  32964-3 0  9999
2 42015  97.2823 103.5895 0005988  15.9722 344.1706 15.28668890276780
AL-FARABI 1             
1 42016U 17008BW  22037.74718312  .00011859  00000+0  40486-3 0  9994
2 42016  97.2881 106.0601 0005562  12.4549 347.6829 15.30453854277033
NAYIF-1 (EO-88)         
1 42017U 17008BX  22038.16315296  .00010410  00000+0  35484-3 0  9990
2 42017  97.2873 106.4747 0005568  10.2505 349.8848 15.30538694277125
UCLSAT                  
1 42765U 17036A   22037.88105708  .00008736  00000+0  33493-3 0  9990
2 42765  97.2186  84.7996 0011831  71.4712 288.7811 15.26671008257913
LITUANICASAT-2          
1 42768U 17036D   22038.37761363  .00014388  00000+0  50340-3 0  9993
2 42768  97.2272  87.0235 0013777  57.0034 303.2528 15.29530218257336
AALTO-1                 
1 42775U 17036L   22037.82624086  .00005510  00000+0  23112-3 0  9994
2 42775  97.2175  80.4972 0014791  71.1659 289.1181 15.23780879256877
URSA MAIOR              
1 42776U 17036M   22038.10899724  .00005574  00000+0  23115-3 0  9993
2 42776  97.2188  81.3862 0014492  69.5406 290.7386 15.24167567256946
COMPASS 2               
1 42777U 17036N   22037.89864577  .00011481  00000+0  41971-3 0  9991
2 42777  97.2257  86.3598 0012286  61.3860 298.8615 15.28165358257189
DIAMOND RED             
1 42783U 17036U   22038.11496497  .00006226  00000+0  24992-3 0  9991
2 42783  97.2199  83.4789 0012902  75.2124 285.0543 15.25236786257069
PEGASUS                 
1 42784U 17036V   22037.87156515  .00008267  00000+0  32285-3 0  9999
2 42784  97.2199  84.1727 0012592  73.7977 286.4647 15.26062078257088
DIAMOND GREEN           
1 42785U 17036W   22037.85149831  .00006740  00000+0  27011-3 0  9996
2 42785  97.2202  83.2828 0012774  76.6534 283.6128 15.25267215257092
DIAMOND BLUE            
1 42786U 17036X   22037.91635803  .00006518  00000+0  26139-3 0  9996
2 42786  97.2202  83.3372 0012727  76.8881 283.3777 15.25253961257105
NUDTSAT                 
1 42787U 17036Y   22037.91501046  .00013628  00000+0  48557-3 0  9996
2 42787  97.2239  87.5333 0011575  65.4284 294.8179 15.28973561257123
SUCHAI                  
1 42788U 17036Z   22038.12005813  .00009037  00000+0  34063-3 0  9998
2 42788  97.2208  85.7549 0011998  69.6937 290.5591 15.27221010257270
SKCUBE                  
1 42789U 17036AA  22037.87165228  .00008964  00000+0  34232-3 0  9993
2 42789  97.2204  85.0968 0011956  71.1140 289.1394 15.26791228257135
VZLUSAT-1               
1 42790U 17036AB  22037.65350106  .00013059  00000+0  46636-3 0  9994
2 42790  97.2235  87.2606 0010977  66.4965 293.7428 15.28914974257235
ROBUSTA-1B              
1 42792U 17036AD  22037.86361043  .00009350  00000+0  35332-3 0  9991
2 42792  97.2202  85.5709 0011528  71.2952 288.9537 15.27131789257173
CICERO 6                
1 42793U 17036AE  22037.87305336  .00006037  00000+0  24194-3 0  9999
2 42793  97.2180  83.8297 0011261  76.2731 283.9760 15.25322596257153
CORVUS BC2              
1 42846U 17042X   22038.16816273  .00001270  00000+0  12858-3 0  9993
2 42846  97.4406 262.7281 0011051  75.3040 284.9404 14.92537315248848
CORVUS BC1              
1 42847U 17042Y   22038.52583894  .00000857  00000+0  88212-4 0  9992
2 42847  97.4409 263.3483 0010718  73.4140 286.8256 14.92634544248907
MIRATA                  
1 43015U 17073C   22037.66104799  .00007039  00000+0  53034-3 0  9993
2 43015  97.6873 297.9084 0243552 250.3851 107.0928 14.82114659227884
MAKERSAT 0              
1 43016U 17073D   22037.70280110  .00004092  00000+0  31448-3 0  9992
2 43016  97.6901 297.7640 0248698 253.5753 103.7995 14.80960480227836
AEROCUBE 7B (OCSD B)    
1 43042U 17071F   22037.84909419  .00042328  00000+0  58359-3 0  9998
2 43042  51.6367 345.8267 0004157 103.1997 256.9459 15.56772064235222
AEROCUBE 7C (OCSD C)    
1 43043U 17071G   22038.11317687  .00040864  00000+0  57412-3 0  9992
2 43043  51.6354 345.3146 0004316 105.9319 254.2149 15.56278583235229
ASGARDIA 1              
1 43049U 17071N   22038.11325478  .00036649  00000+0  53296-3 0  9997
2 43049  51.6374 345.4922 0002755 118.5184 241.6085 15.55399320235215
ISARA                   
1 43050U 17071P   22037.93755186  .00525643  12533-3  12383-2 0  9997
2 43050  51.6217 290.1260 0007284 195.4723 164.6063 15.96218902235939
PROPCUBE 2 (FAUNA)      
1 43052U 17071R   22038.13835571  .00044667  00000+0  59954-3 0  9999
2 43052  51.6345 339.6285 0002775 122.2802 237.8459 15.57472867235295
CORVUS BC3              
1 43118U 18004H   22037.77468640  .00005551  00000+0  22211-3 0  9992
2 43118  97.3779 112.2732 0011276 102.9323 257.3175 15.25430053226284
MICROMAS-2A             
1 43131U 18004W   22038.13694909  .00014644  00000+0  49970-3 0  9991
2 43131  97.3886 117.6664 0008941  91.8234 268.4031 15.30399847226615
SPACEBEE-4              
1 43139U 18004AE  22037.71943584  .00025641  00000+0  77119-3 0  9993
2 43139  97.3969 120.8615 0007688  89.5634 270.6490 15.34340131226746
SPACEBEE-3              
1 43140U 18004AF  22037.19956290  .00038127  00000+0  10226-2 0  9993
2 43140  97.4015 122.7952 0006529  84.9657 275.2332 15.37852145226802
SPACEBEE-2              
1 43141U 18004AG  22038.18339937  .00037832  00000+0  97024-3 0  9991
2 43141  97.4036 124.7348 0005845  79.9243 280.2662 15.39237638227003
SPACEBEE-1              
1 43142U 18004AH  22037.87215066  .00041019  00000+0  99721-3 0  9991
2 43142  97.4048 125.4088 0005486  75.0493 285.1361 15.40852989227005
CICERO 7                
1 43143U 18004AJ  22037.79043369  .00009477  00000+0  33047-3 0  9999
2 43143  97.3860 117.2027 0007741 102.1589 258.0519 15.29816327226571
GOMX-4B                 
1 43196U 18015E   22038.01199167  .00003160  00000+0  12663-3 0  9997
2 43196  97.5121 176.5213 0018591 151.5211 208.7047 15.25635233223263
GOMX-4A                 
1 43197U 18015F   22038.18635507  .00006878  00000+0  26352-3 0  9998
2 43197  97.5114 177.2090 0018526 151.2718 333.7322 15.26698399223330
AEROCUBE 12A            
1 43556U 18046C   22038.17615597  .00011984  00000+0  36402-3 0  9998
2 43556  51.6380  96.4462 0006676 292.6819  67.3457 15.34461056199287
AEROCUBE 12B            
1 43557U 18046D   22037.86396611  .00008891  00000+0  28200-3 0  9997
2 43557  51.6383 101.0575 0006844 288.6465  71.3774 15.33430937199143
SURFSAT                 
1 43614U 18070B   22037.93132159  .00020475  00000+0  41322-3 0  9993
2 43614  93.0211  43.8049 0013714 157.4311 202.7553 15.46361460190844
CP7 (DAVE)              
1 43615U 18070C   22037.93918434  .00018506  00000+0  37992-3 0  9992
2 43615  93.0215  43.7228 0013890 158.3205 201.8644 15.45867348190828
ELFIN-B                 
1 43616U 18070D   22038.45369614  .00028216  00000+0  47488-3 0  9991
2 43616  93.0166  44.5613 0013420 147.8111 212.3972 15.51531995191116
ELFIN-A                 
1 43617U 18070E   22038.12092019  .00031380  00000+0  51210-3 0  9992
2 43617  93.0205  45.5310 0012917 144.8028 215.4090 15.52391474191099
CUBEBEL-1 (BSUSAT-1)    
1 43666U 18083E   22038.41432258  .00008157  00000+0  37187-3 0  9998
2 43666  97.4353  68.7146 0015769  71.0911  37.7816 15.20793255181705
CICERO 10               
1 43690U 18088A   22037.73962155  .00007564  00000+0  32370-3 0  9998
2 43690  85.0361  42.9295 0011515 268.5123  91.4800 15.22577138179851
IRVINE01                
1 43693U 18088D   22037.74472961  .00022851  00000+0  79264-3 0  9992
2 43693  85.0318  38.8208 0012437 229.2670 130.7497 15.29602915180196
